[{"OBJECT_NAME":"ARIANE 44L+ DEB","OBJECT_ID":"1992-021R","EPOCH":"2026-04-26T10:49:55.070112","MEAN_MOTION":2.23278229,"ECCENTRICITY":0.7000789,"INCLINATION":3.3587,"RA_OF_ASC_NODE":121.4456,"ARG_OF_PERICENTER":257.1201,"MEAN_ANOMALY":54.0836,"EPHEMERIS_TYPE":0,"CLASSIFICATION_TYPE":"U","NORAD_CAT_ID":28577,"ELEMENT_SET_NO":999,"REV_AT_EPOCH":17657,"BSTAR":0,"MEAN_MOTION_DOT":-2.28e-6,"MEAN_MOTION_DDOT":0},{"OBJECT_NAME":"BLOCK DM-SL R/B","OBJECT_ID":"2005-008B","EPOCH":"2026-04-26T06:45:05.961600","MEAN_MOTION":2.13875767,"ECCENTRICITY":0.6556707,"INCLINATION":0.73,"RA_OF_ASC_NODE":29.5871,"ARG_OF_PERICENTER":204.6333,"MEAN_ANOMALY":45.9145,"EPHEMERIS_TYPE":0,"CLASSIFICATION_TYPE":"U","NORAD_CAT_ID":28627,"ELEMENT_SET_NO":999,"REV_AT_EPOCH":16532,"BSTAR":0,"MEAN_MOTION_DOT":-2.13e-6,"MEAN_MOTION_DDOT":0},{"OBJECT_NAME":"INMARSAT 4-F1","OBJECT_ID":"2005-009A","EPOCH":"2026-04-26T11:52:38.687808","MEAN_MOTION":1.00274066,"ECCENTRICITY":0.0002868,"INCLINATION":5.1013,"RA_OF_ASC_NODE":42.6929,"ARG_OF_PERICENTER":349.2,"MEAN_ANOMALY":178.8589,"EPHEMERIS_TYPE":0,"CLASSIFICATION_TYPE":"U","NORAD_CAT_ID":28628,"ELEMENT_SET_NO":999,"REV_AT_EPOCH":7715,"BSTAR":0,"MEAN_MOTION_DOT":2.3e-7,"MEAN_MOTION_DDOT":0},{"OBJECT_NAME":"SL-12 R/B(2)","OBJECT_ID":"2005-010F","EPOCH":"2026-04-25T18:59:55.305312","MEAN_MOTION":1.00228882,"ECCENTRICITY":0.00223611,"INCLINATION":13.0705,"RA_OF_ASC_NODE":18.8011,"ARG_OF_PERICENTER":268.1884,"MEAN_ANOMALY":265.3807,"EPHEMERIS_TYPE":0,"CLASSIFICATION_TYPE":"U","NORAD_CAT_ID":28634,"ELEMENT_SET_NO":999,"REV_AT_EPOCH":7717,"BSTAR":0,"MEAN_MOTION_DOT":6.5e-7,"MEAN_MOTION_DDOT":0},{"OBJECT_NAME":"BREEZE-M R/B","OBJECT_ID":"2004-008C","EPOCH":"2026-04-26T06:38:36.434112","MEAN_MOTION":1.97320296,"ECCENTRICITY":0.6095487,"INCLINATION":12.9348,"RA_OF_ASC_NODE":285.3402,"ARG_OF_PERICENTER":8.8214,"MEAN_ANOMALY":358.2428,"EPHEMERIS_TYPE":0,"CLASSIFICATION_TYPE":"U","NORAD_CAT_ID":28656,"ELEMENT_SET_NO":999,"REV_AT_EPOCH":15323,"BSTAR":0,"MEAN_MOTION_DOT":1.85e-6,"MEAN_MOTION_DDOT":0},{"OBJECT_NAME":"DIRECTV 8","OBJECT_ID":"2005-019A","EPOCH":"2026-04-26T12:29:35.578752","MEAN_MOTION":1.00270938,"ECCENTRICITY":0.0003207,"INCLINATION":0.014,"RA_OF_ASC_NODE":229.3551,"ARG_OF_PERICENTER":173.3416,"MEAN_ANOMALY":240.1704,"EPHEMERIS_TYPE":0,"CLASSIFICATION_TYPE":"U","NORAD_CAT_ID":28659,"ELEMENT_SET_NO":999,"REV_AT_EPOCH":7655,"BSTAR":0,"MEAN_MOTION_DOT":0,"MEAN_MOTION_DDOT":0},{"OBJECT_NAME":"BREEZE-M R/B","OBJECT_ID":"2005-019B","EPOCH":"2026-04-26T09:55:30.288000","MEAN_MOTION":1.54369479,"ECCENTRICITY":0.3292334,"INCLINATION":9.6249,"RA_OF_ASC_NODE":124.6016,"ARG_OF_PERICENTER":30.9484,"MEAN_ANOMALY":146.0327,"EPHEMERIS_TYPE":0,"CLASSIFICATION_TYPE":"U","NORAD_CAT_ID":28660,"ELEMENT_SET_NO":999,"REV_AT_EPOCH":11774,"BSTAR":0,"MEAN_MOTION_DOT":-7.8e-7,"MEAN_MOTION_DDOT":0},{"OBJECT_NAME":"GALAXY 28 (G-28)","OBJECT_ID":"2005-022A","EPOCH":"2026-04-26T10:00:59.763168","MEAN_MOTION":1.00276457,"ECCENTRICITY":0.0003127,"INCLINATION":3.1678,"RA_OF_ASC_NODE":79.5518,"ARG_OF_PERICENTER":320.7798,"MEAN_ANOMALY":297.2241,"EPHEMERIS_TYPE":0,"CLASSIFICATION_TYPE":"U","NORAD_CAT_ID":28702,"ELEMENT_SET_NO":999,"REV_AT_EPOCH":5145,"BSTAR":0,"MEAN_MOTION_DOT":-2.09e-6,"MEAN_MOTION_DDOT":0},{"OBJECT_NAME":"SL-12 R/B(2)","OBJECT_ID":"2005-023H","EPOCH":"2026-04-25T15:48:01.442592","MEAN_MOTION":1.00814993,"ECCENTRICITY":0.00124615,"INCLINATION":12.8516,"RA_OF_ASC_NODE":19.2426,"ARG_OF_PERICENTER":328.9929,"MEAN_ANOMALY":202.9565,"EPHEMERIS_TYPE":0,"CLASSIFICATION_TYPE":"U","NORAD_CAT_ID":28704,"ELEMENT_SET_NO":999,"REV_AT_EPOCH":7667,"BSTAR":0,"MEAN_MOTION_DOT":-3.7e-6,"MEAN_MOTION_DDOT":0},{"OBJECT_NAME":"THAICOM 4","OBJECT_ID":"2005-028A","EPOCH":"2026-04-26T12:31:01.419744","MEAN_MOTION":1.00270853,"ECCENTRICITY":0.0001983,"INCLINATION":0.1129,"RA_OF_ASC_NODE":84.267,"ARG_OF_PERICENTER":314.8393,"MEAN_ANOMALY":122.6713,"EPHEMERIS_TYPE":0,"CLASSIFICATION_TYPE":"U","NORAD_CAT_ID":28786,"ELEMENT_SET_NO":999,"REV_AT_EPOCH":5173,"BSTAR":0,"MEAN_MOTION_DOT":-3.74e-6,"MEAN_MOTION_DDOT":0},{"OBJECT_NAME":"ARIANE 5 R/B","OBJECT_ID":"2005-028B","EPOCH":"2026-04-26T08:28:11.390304","MEAN_MOTION":2.26684528,"ECCENTRICITY":0.7154103,"INCLINATION":6.7944,"RA_OF_ASC_NODE":242.9297,"ARG_OF_PERICENTER":111.5404,"MEAN_ANOMALY":334.3187,"EPHEMERIS_TYPE":0,"CLASSIFICATION_TYPE":"U","NORAD_CAT_ID":28787,"ELEMENT_SET_NO":999,"REV_AT_EPOCH":17146,"BSTAR":-9.0746e-5,"MEAN_MOTION_DOT":-1.67e-6,"MEAN_MOTION_DDOT":0},{"OBJECT_NAME":"ANIK F1R","OBJECT_ID":"2005-036A","EPOCH":"2026-04-26T11:20:45.288960","MEAN_MOTION":1.00272164,"ECCENTRICITY":0.0003413,"INCLINATION":4.1826,"RA_OF_ASC_NODE":77.2021,"ARG_OF_PERICENTER":331.3808,"MEAN_ANOMALY":228.8012,"EPHEMERIS_TYPE":0,"CLASSIFICATION_TYPE":"U","NORAD_CAT_ID":28868,"ELEMENT_SET_NO":999,"REV_AT_EPOCH":4593,"BSTAR":0,"MEAN_MOTION_DOT":-8.4e-7,"MEAN_MOTION_DDOT":0},{"OBJECT_NAME":"SYRACUSE 3A","OBJECT_ID":"2005-041B","EPOCH":"2026-04-26T12:04:33.589056","MEAN_MOTION":1.00270453,"ECCENTRICITY":0.0003445,"INCLINATION":4.5125,"RA_OF_ASC_NODE":76.4599,"ARG_OF_PERICENTER":315.3524,"MEAN_ANOMALY":50.0279,"EPHEMERIS_TYPE":0,"CLASSIFICATION_TYPE":"U","NORAD_CAT_ID":28885,"ELEMENT_SET_NO":999,"REV_AT_EPOCH":7523,"BSTAR":0,"MEAN_MOTION_DOT":1.22e-6,"MEAN_MOTION_DDOT":0},{"OBJECT_NAME":"ARIANE 5 R/B","OBJECT_ID":"2005-041C","EPOCH":"2026-04-25T07:34:16.042944","MEAN_MOTION":2.24430545,"ECCENTRICITY":0.71776549,"INCLINATION":7.7223,"RA_OF_ASC_NODE":222.0755,"ARG_OF_PERICENTER":332.9564,"MEAN_ANOMALY":6.83,"EPHEMERIS_TYPE":0,"CLASSIFICATION_TYPE":"U","NORAD_CAT_ID":28886,"ELEMENT_SET_NO":999,"REV_AT_EPOCH":16827,"BSTAR":0.00070428428,"MEAN_MOTION_DOT":-1.78e-6,"MEAN_MOTION_DDOT":0},{"OBJECT_NAME":"INMARSAT 4-F2","OBJECT_ID":"2005-044A","EPOCH":"2026-04-26T04:55:38.636256","MEAN_MOTION":1.00272173,"ECCENTRICITY":0.0002735,"INCLINATION":5.03,"RA_OF_ASC_NODE":43.7593,"ARG_OF_PERICENTER":348.6277,"MEAN_ANOMALY":39.19,"EPHEMERIS_TYPE":0,"CLASSIFICATION_TYPE":"U","NORAD_CAT_ID":28899,"ELEMENT_SET_NO":999,"REV_AT_EPOCH":7500,"BSTAR":0,"MEAN_MOTION_DOT":-2.71e-6,"MEAN_MOTION_DDOT":0},{"OBJECT_NAME":"METEOSAT-9 (MSG-2)","OBJECT_ID":"2005-049B","EPOCH":"2026-04-25T22:22:58.331712","MEAN_MOTION":1.00274462,"ECCENTRICITY":4.974e-5,"INCLINATION":9.2466,"RA_OF_ASC_NODE":54.6723,"ARG_OF_PERICENTER":356.013,"MEAN_ANOMALY":184.6448,"EPHEMERIS_TYPE":0,"CLASSIFICATION_TYPE":"U","NORAD_CAT_ID":28912,"ELEMENT_SET_NO":999,"REV_AT_EPOCH":647,"BSTAR":0,"MEAN_MOTION_DOT":1.16e-6,"MEAN_MOTION_DDOT":0},{"OBJECT_NAME":"ARIANE 5 R/B","OBJECT_ID":"2005-049C","EPOCH":"2026-04-26T12:57:56.901888","MEAN_MOTION":2.24899136,"ECCENTRICITY":0.7153268,"INCLINATION":4.5573,"RA_OF_ASC_NODE":335.9406,"ARG_OF_PERICENTER":297.2761,"MEAN_ANOMALY":7.4405,"EPHEMERIS_TYPE":0,"CLASSIFICATION_TYPE":"U","NORAD_CAT_ID":28913,"ELEMENT_SET_NO":999,"REV_AT_EPOCH":16722,"BSTAR":0.0014807,"MEAN_MOTION_DOT":2.3e-7,"MEAN_MOTION_DDOT":0}]
